[Satellite]
VERSION=1.1
NAME=CATSAT-1
NICKNAME=CATSAT-1
TLE1=1 44033U 98067PZ  20157.75711894  .00015541  00000-0  16077-3 0  9991
TLE2=2 44033  51.6393  15.3265 0003994  53.5116 306.6247 15.64926517 76604
STATUS=0
